start=new Date('2022-02-05T00:00:00.000Z').valueOf();
sats=[{"TLE_LINE1":"1 45742U 20038N   22035.55691136  .00007244  00000-0  50441-3 0  9997","PERIOD":"95.591","LAUNCH_DATE":"2020-06-13","PERIAPSIS":"546.094","CENTER_NAME":"EARTH","INCLINATION":"53.0530","COUNTRY_CODE":"US","REF_FRAME":"TEME","OBJECT_ID":"2020-038N","DECAY_DATE":null,"MEAN_ELEMENT_THEORY":"SGP4","GP_ID":"195297455","MEAN_MOTION_DOT":"0.00007244","SEMIMAJOR_AXIS":"6925.280","NORAD_CAT_ID":"45742","SITE":"AFETR","TLE_LINE2":"2 45742  53.0530 104.0366 0001518  65.6147 294.5000 15.06422233 90988","REV_AT_EPOCH":"9098","RA_OF_ASC_NODE":"104.0366","APOAPSIS":"548.197","MEAN_MOTION":"15.06422233","FILE":"3291889","TIME_SYSTEM":"UTC","ARG_OF_PERICENTER":"65.6147","MEAN_ANOMALY":"294.5000","OBJECT_TYPE":"PAYLOAD","EPOCH":"2022-02-04T13:21:57.141504","CLASSIFICATION_TYPE":"U","BSTAR":"0.00050441000000","EPHEMERIS_TYPE":"0","RCS_SIZE":"LARGE","OBJECT_NAME":"STARLINK-1481","ELEMENT_SET_NO":"999","MEAN_MOTION_DDOT":"0.0000000000000","ECCENTRICITY":"0.00015180"},{"COUNTRY_CODE":"US","REF_FRAME":"TEME","OBJECT_ID":"2020-038P","CENTER_NAME":"EARTH","INCLINATION":"53.0553","PERIOD":"95.592","LAUNCH_DATE":"2020-06-13","PERIAPSIS":"545.918","TLE_LINE1":"1 45743U 20038P   22035.50900131 -.00000279  00000-0  15629-6 0  9995","TLE_LINE2":"2 45743  53.0553 104.1052 0001832  51.9571 308.1583 15.06408695 90989","REV_AT_EPOCH":"9098","RA_OF_ASC_NODE":"104.1052","APOAPSIS":"548.456","MEAN_MOTION":"15.06408695","FILE":"3291889","SITE":"AFETR","MEAN_ELEMENT_THEORY":"SGP4","GP_ID":"195297706","MEAN_MOTION_DOT":"-0.00000279","NORAD_CAT_ID":"45743","SEMIMAJOR_AXIS":"6925.322","DECAY_DATE":null,"CLASSIFICATION_TYPE":"U","OBJECT_TYPE":"PAYLOAD","EPOCH":"2022-02-04T12:12:57.713184","MEAN_ANOMALY":"308.1583","TIME_SYSTEM":"UTC","ARG_OF_PERICENTER":"51.9571","ECCENTRICITY":"0.00018320","MEAN_MOTION_DDOT":"0.0000000000000","ELEMENT_SET_NO":"999","RCS_SIZE":"LARGE","OBJECT_NAME":"STARLINK-1483","BSTAR":"0.00000015629000","EPHEMERIS_TYPE":"0"},{"OBJECT_ID":"2020-038Q","REF_FRAME":"TEME","COUNTRY_CODE":"US","INCLINATION":"53.0520","CENTER_NAME":"EARTH","PERIAPSIS":"546.163","LAUNCH_DATE":"2020-06-13","PERIOD":"95.590","TLE_LINE1":"1 45744U 20038Q   22035.54586074  .00013696  00000-0  93586-3 0  9997","MEAN_MOTION":"15.06428070","FILE":"3291889","APOAPSIS":"548.092","RA_OF_ASC_NODE":"104.0914","REV_AT_EPOCH":"9099","TLE_LINE2":"2 45744  53.0520 104.0914 0001393  63.5231 296.5900 15.06428070 90997","SITE":"AFETR","SEMIMAJOR_AXIS":"6925.263","NORAD_CAT_ID":"45744","MEAN_MOTION_DOT":"0.00013696","MEAN_ELEMENT_THEORY":"SGP4","GP_ID":"195297951","DECAY_DATE":null,"OBJECT_TYPE":"PAYLOAD","CLASSIFICATION_TYPE":"U","EPOCH":"2022-02-04T13:06:02.367936","MEAN_ANOMALY":"296.5900","ARG_OF_PERICENTER":"63.5231","TIME_SYSTEM":"UTC","ECCENTRICITY":"0.00013930","MEAN_MOTION_DDOT":"0.0000000000000","RCS_SIZE":"LARGE","ELEMENT_SET_NO":"999","OBJECT_NAME":"STARLINK-1500","EPHEMERIS_TYPE":"0","BSTAR":"0.00093586000000"},{"COUNTRY_CODE":"US","REF_FRAME":"TEME","OBJECT_ID":"2020-038R","CENTER_NAME":"EARTH","INCLINATION":"53.0540","PERIOD":"95.592","LAUNCH_DATE":"2020-06-13","PERIAPSIS":"546.184","TLE_LINE1":"1 45745U 20038R   22035.46845265 -.00000276  00000-0  37267-6 0  9997","REV_AT_EPOCH":"9097","TLE_LINE2":"2 45745  53.0540 104.4479 0001483  63.2623 296.8518 15.06400731 90972","RA_OF_ASC_NODE":"104.4479","APOAPSIS":"548.238","FILE":"3291889","MEAN_MOTION":"15.06400731","SITE":"AFETR","MEAN_ELEMENT_THEORY":"SGP4","GP_ID":"195296707","MEAN_MOTION_DOT":"-0.00000276","NORAD_CAT_ID":"45745","SEMIMAJOR_AXIS":"6925.346","DECAY_DATE":null,"OBJECT_TYPE":"PAYLOAD","CLASSIFICATION_TYPE":"U","EPOCH":"2022-02-04T11:14:34.308960","MEAN_ANOMALY":"296.8518","ARG_OF_PERICENTER":"63.2623","TIME_SYSTEM":"UTC","ECCENTRICITY":"0.00014830","MEAN_MOTION_DDOT":"0.0000000000000","OBJECT_NAME":"STARLINK-1503","RCS_SIZE":"LARGE","ELEMENT_SET_NO":"999","BSTAR":"0.00000037267000","EPHEMERIS_TYPE":"0"},{"OBJECT_ID":"2020-038S","REF_FRAME":"TEME","COUNTRY_CODE":"US","INCLINATION":"53.0525","CENTER_NAME":"EARTH","PERIAPSIS":"545.981","LAUNCH_DATE":"2020-06-13","PERIOD":"95.591","TLE_LINE1":"1 45746U 20038S   22035.48320446  .00010344  00000-0  71200-3 0  9997","MEAN_MOTION":"15.06416965","FILE":"3291889","APOAPSIS":"548.342","RA_OF_ASC_NODE":"104.3655","TLE_LINE2":"2 45746  53.0525 104.3655 0001705  60.5300 299.5859 15.06416965 90974","REV_AT_EPOCH":"9097","SITE":"AFETR","SEMIMAJOR_AXIS":"6925.297","NORAD_CAT_ID":"45746","MEAN_MOTION_DOT":"0.00010344","MEAN_ELEMENT_THEORY":"SGP4","GP_ID":"195296956","DECAY_DATE":null,"CLASSIFICATION_TYPE":"U","OBJECT_TYPE":"PAYLOAD","EPOCH":"2022-02-04T11:35:48.865344","MEAN_ANOMALY":"299.5859","TIME_SYSTEM":"UTC","ARG_OF_PERICENTER":"60.5300","ECCENTRICITY":"0.00017050","MEAN_MOTION_DDOT":"0.0000000000000","ELEMENT_SET_NO":"999","RCS_SIZE":"LARGE","OBJECT_NAME":"STARLINK-1504","EPHEMERIS_TYPE":"0","BSTAR":"0.00071200000000"},{"EPHEMERIS_TYPE":"0","BSTAR":"0.00038387000000","OBJECT_NAME":"STARLINK-1506","RCS_SIZE":"LARGE","ELEMENT_SET_NO":"999","MEAN_MOTION_DDOT":"0.0000000000000","ECCENTRICITY":"0.00014980","TIME_SYSTEM":"UTC","ARG_OF_PERICENTER":"61.5683","MEAN_ANOMALY":"298.5457","CLASSIFICATION_TYPE":"U","OBJECT_TYPE":"PAYLOAD","EPOCH":"2022-02-04T11:41:06.664416","DECAY_DATE":null,"SEMIMAJOR_AXIS":"6925.302","NORAD_CAT_ID":"45747","MEAN_MOTION_DOT":"0.00005443","GP_ID":"195298206","MEAN_ELEMENT_THEORY":"SGP4","SITE":"AFETR","MEAN_MOTION":"15.06415351","FILE":"3291889","APOAPSIS":"548.204","RA_OF_ASC_NODE":"104.3564","TLE_LINE2":"2 45747  53.0538 104.3564 0001498  61.5683 298.5457 15.06415351 90984","REV_AT_EPOCH":"9098","TLE_LINE1":"1 45747U 20038T   22035.48688269  .00005443  00000-0  38387-3 0  9991","PERIAPSIS":"546.129","LAUNCH_DATE":"2020-06-13","PERIOD":"95.591","INCLINATION":"53.0538","CENTER_NAME":"EARTH","OBJECT_ID":"2020-038T","REF_FRAME":"TEME","COUNTRY_CODE":"US"},{"TLE_LINE1":"1 45748U 20038U   22035.60756942  .00000450  00000-0  49077-4 0  9992","LAUNCH_DATE":"2020-06-13","PERIOD":"95.592","PERIAPSIS":"546.210","INCLINATION":"53.0514","CENTER_NAME":"EARTH","COUNTRY_CODE":"US","OBJECT_ID":"2020-038U","REF_FRAME":"TEME","DECAY_DATE":null,"GP_ID":"195306175","MEAN_ELEMENT_THEORY":"SGP4","NORAD_CAT_ID":"45748","SEMIMAJOR_AXIS":"6925.325","MEAN_MOTION_DOT":"0.00000450","SITE":"AFETR","RA_OF_ASC_NODE":"103.8282","TLE_LINE2":"2 45748  53.0514 103.8282 0001414  66.6035 293.5103 15.06407778 91938","REV_AT_EPOCH":"9193","MEAN_MOTION":"15.06407778","FILE":"3291996","APOAPSIS":"548.169","TIME_SYSTEM":"UTC","ARG_OF_PERICENTER":"66.6035","MEAN_ANOMALY":"293.5103","CLASSIFICATION_TYPE":"U","OBJECT_TYPE":"PAYLOAD","EPOCH":"2022-02-04T14:34:53.997888","BSTAR":"0.00004907700000","EPHEMERIS_TYPE":"0","ELEMENT_SET_NO":"999","RCS_SIZE":"LARGE","OBJECT_NAME":"STARLINK-1507","MEAN_MOTION_DDOT":"0.0000000000000","ECCENTRICITY":"0.00014140"},{"EPHEMERIS_TYPE":"0","BSTAR":"0.00017502000000","ELEMENT_SET_NO":"999","RCS_SIZE":"LARGE","OBJECT_NAME":"STARLINK-1391","MEAN_MOTION_DDOT":"0.0000000000000","ECCENTRICITY":"0.00014660","ARG_OF_PERICENTER":"65.2685","TIME_SYSTEM":"UTC","MEAN_ANOMALY":"294.8456","EPOCH":"2022-02-04T10:29:27.825504","OBJECT_TYPE":"PAYLOAD","CLASSIFICATION_TYPE":"U","DECAY_DATE":null,"MEAN_MOTION_DOT":"0.00002326","SEMIMAJOR_AXIS":"6925.346","NORAD_CAT_ID":"45750","GP_ID":"195297207","MEAN_ELEMENT_THEORY":"SGP4","SITE":"AFETR","APOAPSIS":"548.226","MEAN_MOTION":"15.06400982","FILE":"3291889","REV_AT_EPOCH":"9126","TLE_LINE2":"2 45750  53.0544  84.5855 0001466  65.2685 294.8456 15.06400982 91269","RA_OF_ASC_NODE":"84.5855","TLE_LINE1":"1 45750U 20038W   22035.43712761  .00002326  00000-0  17502-3 0  9998","PERIAPSIS":"546.195","PERIOD":"95.592","LAUNCH_DATE":"2020-06-13","CENTER_NAME":"EARTH","INCLINATION":"53.0544","REF_FRAME":"TEME","OBJECT_ID":"2020-038W","COUNTRY_CODE":"US"},{"OBJECT_TYPE":"PAYLOAD","CLASSIFICATION_TYPE":"U","EPOCH":"2022-02-04T19:57:22.720608","MEAN_ANOMALY":"302.3501","TIME_SYSTEM":"UTC","ARG_OF_PERICENTER":"57.7644","ECCENTRICITY":"0.00016190","MEAN_MOTION_DDOT":"0.0000000000000","ELEMENT_SET_NO":"999","RCS_SIZE":"LARGE","OBJECT_NAME":"STARLINK-1464","BSTAR":"0.00010989000000","EPHEMERIS_TYPE":"0","COUNTRY_CODE":"US","REF_FRAME":"TEME","OBJECT_ID":"2020-038X","CENTER_NAME":"EARTH","INCLINATION":"53.0558","PERIOD":"95.591","LAUNCH_DATE":"2020-06-13","PERIAPSIS":"546.055","TLE_LINE1":"1 45751U 20038X   22035.83151297  .00001356  00000-0  10989-3 0  9998","TLE_LINE2":"2 45751  53.0558  82.8045 0001619  57.7644 302.3501 15.06412098 92435","REV_AT_EPOCH":"9243","RA_OF_ASC_NODE":"82.8045","APOAPSIS":"548.298","MEAN_MOTION":"15.06412098","FILE":"3291977","SITE":"AFETR","MEAN_ELEMENT_THEORY":"SGP4","GP_ID":"195305542","MEAN_MOTION_DOT":"0.00001356","NORAD_CAT_ID":"45751","SEMIMAJOR_AXIS":"6925.311","DECAY_DATE":null},{"COUNTRY_CODE":"US","OBJECT_ID":"2020-038Y","REF_FRAME":"TEME","INCLINATION":"53.0024","CENTER_NAME":"EARTH","LAUNCH_DATE":"2020-06-13","PERIOD":"91.122","PERIAPSIS":"325.228","TLE_LINE1":"1 45752U 20038Y   22035.15516607  .00100813  00000-0  52122-3 0  9997","RA_OF_ASC_NODE":"201.5443","TLE_LINE2":"2 45752  53.0024 201.5443 0006516 311.3662  48.6798 15.80297998 94607","REV_AT_EPOCH":"9460","MEAN_MOTION":"15.80297998","FILE":"3291889","APOAPSIS":"333.970","SITE":"AFETR","MEAN_ELEMENT_THEORY":"SGP4","GP_ID":"195297707","SEMIMAJOR_AXIS":"6707.734","NORAD_CAT_ID":"45752","MEAN_MOTION_DOT":"0.00100813","DECAY_DATE":null,"OBJECT_TYPE":"PAYLOAD","CLASSIFICATION_TYPE":"U","EPOCH":"2022-02-04T03:43:26.348448","MEAN_ANOMALY":"48.6798","TIME_SYSTEM":"UTC","ARG_OF_PERICENTER":"311.3662","ECCENTRICITY":"0.00065160","MEAN_MOTION_DDOT":"0.0000000000000","ELEMENT_SET_NO":"999","RCS_SIZE":"LARGE","OBJECT_NAME":"STARLINK-1469","BSTAR":"0.00052122000000","EPHEMERIS_TYPE":"0"}];
